$$SOE
2461295.500000000, A.D. 2026-Sep-12 00:00:00.0000, -4.750345673363906E+08, -1.534333574750628E+08, 7.800135486044198E+07,
2461302.500000000, A.D. 2026-Sep-19 00:00:00.0000, -4.726836789710921E+08, -1.626582802155045E+08, 7.741884646876726E+07,
2461309.500000000, A.D. 2026-Sep-26 00:00:00.0000, -4.701554925814772E+08, -1.718221765946348E+08, 7.680729630540144E+07,
2461316.500000000, A.D. 2026-Oct-03 00:00:00.0000, -4.674515629655887E+08, -1.809218338020579E+08, 7.616703284969735E+07,
2461323.500000000, A.D. 2026-Oct-10 00:00:00.0000, -4.645734893477872E+08, -1.899540812861924E+08, 7.549839137488763E+07,
2461330.500000000, A.D. 2026-Oct-17 00:00:00.0000, -4.615229144075819E+08, -1.989157907942387E+08, 7.480171377694972E+07,
2461337.500000000, A.D. 2026-Oct-24 00:00:00.0000, -4.583015233457233E+08, -2.078038764894818E+08, 7.407734840073702E+07,
2461344.500000000, A.D. 2026-Oct-31 00:00:00.0000, -4.549110428885764E+08, -2.166152952138758E+08, 7.332564984893176E+07,
2461351.500000000, A.D. 2026-Nov-07 00:00:00.0000, -4.513532398914734E+08, -2.253470468230561E+08, 7.254697874886687E+07,
2461358.500000000, A.D. 2026-Nov-14 00:00:00.0000, -4.476299193397444E+08, -2.339961737074751E+08, 7.174170153140713E+07,
2461365.500000000, A.D. 2026-Nov-21 00:00:00.0000, -4.437429235584060E+08, -2.425597588189640E+08, 7.091019044382522E+07,
2461372.500000000, A.D. 2026-Nov-28 00:00:00.0000, -4.396941336281959E+08, -2.510349252125480E+08, 7.005282364254466E+07,
2461379.500000000, A.D. 2026-Dec-05 00:00:00.0000, -4.354854693890615E+08, -2.594188377616638E+08, 6.916998498057961E+07,
2461386.500000000, A.D. 2026-Dec-12 00:00:00.0000, -4.311188878664285E+08, -2.677087039364937E+08, 6.826206372915345E+07,
2461393.500000000, A.D. 2026-Dec-19 00:00:00.0000, -4.265963820065816E+08, -2.759017736393940E+08, 6.732945440715873E+07,
2461400.500000000, A.D. 2026-Dec-26 00:00:00.0000, -4.219199798625197E+08, -2.839953389665834E+08, 6.637255666054378E+07,
2461407.500000000, A.D. 2027-Jan-02 00:00:00.0000, -4.170917439542263E+08, -2.919867340886993E+08, 6.539177515079731E+07,
2461414.500000000, A.D. 2027-Jan-09 00:00:00.0000, -4.121137706869968E+08, -2.998733352317223E+08, 6.438751944359919E+07,
2461421.500000000, A.D. 2027-Jan-16 00:00:00.0000, -4.069881897935663E+08, -3.076525607508644E+08, 6.336020389522760E+07,
2461428.500000000, A.D. 2027-Jan-23 00:00:00.0000, -4.017171637553852E+08, -3.153218713382758E+08, 6.231024752928674E+07,
2461435.500000000, A.D. 2027-Jan-30 00:00:00.0000, -3.963028870168149E+08, -3.228787704134140E+08, 6.123807388257130E+07,
2461442.500000000, A.D. 2027-Feb-06 00:00:00.0000, -3.907475845689995E+08, -3.303208043567848E+08, 6.014411080874456E+07,
2461449.500000000, A.D. 2027-Feb-13 00:00:00.0000, -3.850535103647610E+08, -3.376455613675575E+08, 5.902879038141160E+07,
2461456.500000000, A.D. 2027-Feb-20 00:00:00.0000, -3.792229479284532E+08, -3.448506697360200E+08, 5.789254904822229E+07,
2461463.500000000, A.D. 2027-Feb-27 00:00:00.0000, -3.732582117644703E+08, -3.519337987452222E+08, 5.673582764482738E+07,
2461470.500000000, A.D. 2027-Mar-06 00:00:00.0000, -3.671616465461297E+08, -3.588926602803480E+08, 5.555907114868180E+07,
2461477.500000000, A.D. 2027-Mar-13 00:00:00.0000, -3.609356256845571E+08, -3.657250090971816E+08, 5.436272848666930E+07,
2461484.500000000, A.D. 2027-Mar-20 00:00:00.0000, -3.545825504060928E+08, -3.724286425853545E+08, 5.314725243164109E+07,
2461491.500000000, A.D. 2027-Mar-27 00:00:00.0000, -3.481048491357372E+08, -3.790014005768247E+08, 5.191309952431954E+07,
2461498.500000000, A.D. 2027-Apr-03 00:00:00.0000, -3.415049769838637E+08, -3.854411652488558E+08, 5.066072999801102E+07,
2461505.500000000, A.D. 2027-Apr-10 00:00:00.0000, -3.347854152753734E+08, -3.917458610995460E+08, 4.939060770239480E+07,
2461512.500000000, A.D. 2027-Apr-17 00:00:00.0000, -3.279486710994622E+08, -3.979134550107555E+08, 4.810320002314012E+07,
2461519.500000000, A.D. 2027-Apr-24 00:00:00.0000, -3.209972768006449E+08, -4.039419564607657E+08, 4.679897778487141E+07,
2461526.500000000, A.D. 2027-May-01 00:00:00.0000, -3.139337891109288E+08, -4.098294178588815E+08, 4.547841511208630E+07,
2461533.500000000, A.D. 2027-May-08 00:00:00.0000, -3.067607876150388E+08, -4.155739342534751E+08, 4.414198928078142E+07,
2461540.500000000, A.D. 2027-May-15 00:00:00.0000, -2.994808740444617E+08, -4.211736414597015E+08, 4.279018077572633E+07,
2461547.500000000, A.D. 2027-May-22 00:00:00.0000, -2.920966739626106E+08, -4.266267151984284E+08, 4.142347348472753E+07,
2461554.500000000, A.D. 2027-May-29 00:00:00.0000, -2.846108374840337E+08, -4.319313727156549E+08, 4.004235460201006E+07,
2461561.500000000, A.D. 2027-Jun-05 00:00:00.0000, -2.770260381424583E+08, -4.370858737518035E+08, 3.864731441562270E+07,
2461568.500000000, A.D. 2027-Jun-12 00:00:00.0000, -2.693449719147058E+08, -4.420885204295204E+08, 3.723884619837846E+07,
2461575.500000000, A.D. 2027-Jun-19 00:00:00.0000, -2.615703567307202E+08, -4.469376569952140E+08, 3.581744615633079E+07,
2461582.500000000, A.D. 2027-Jun-26 00:00:00.0000, -2.537049321894366E+08, -4.516316696760843E+08, 3.438361338786507E+07,
2461589.500000000, A.D. 2027-Jul-03 00:00:00.0000, -2.457514593476505E+08, -4.561689866450694E+08, 3.293784984207839E+07,
2461596.500000000, A.D. 2027-Jul-10 00:00:00.0000, -2.377127205446073E+08, -4.605480780858340E+08, 3.148066027395827E+07,
2461603.500000000, A.D. 2027-Jul-17 00:00:00.0000, -2.295915192257066E+08, -4.647674563973646E+08, 3.001255219005296E+07,
2461610.500000000, A.D. 2027-Jul-24 00:00:00.0000, -2.213906796086399E+08, -4.688256766014472E+08, 2.853403576532817E+07,
2461617.500000000, A.D. 2027-Jul-31 00:00:00.0000, -2.131130457801725E+08, -4.727213367177865E+08, 2.704562371284693E+07,
2461624.500000000, A.D. 2027-Aug-07 00:00:00.0000, -2.047614804238145E+08, -4.764530769550765E+08, 2.554783121885467E+07,
2461631.500000000, A.D. 2027-Aug-14 00:00:00.0000, -1.963388654786335E+08, -4.800195779709899E+08, 2.404117613352773E+07,
2461638.500000000, A.D. 2027-Aug-21 00:00:00.0000, -1.878481041097146E+08, -4.834195615652982E+08, 2.252617908555725E+07,
2461645.500000000, A.D. 2027-Aug-28 00:00:00.0000, -1.792921205583527E+08, -4.866517926039474E+08, 2.100336330408147E+07,
2461652.500000000, A.D. 2027-Sep-04 00:00:00.0000, -1.706738590528398E+08, -4.897150796726841E+08, 1.947325446064746E+07,
2461659.500000000, A.D. 2027-Sep-11 00:00:00.0000, -1.619962831747499E+08, -4.926082751217546E+08, 1.793638060484594E+07,
2461666.500000000, A.D. 2027-Sep-18 00:00:00.0000, -1.532623755468706E+08, -4.953302751517623E+08, 1.639327212788716E+07,
2461673.500000000, A.D. 2027-Sep-25 00:00:00.0000, -1.444751376131001E+08, -4.978800200181752E+08, 1.484446172635120E+07,
2461680.500000000, A.D. 2027-Oct-02 00:00:00.0000, -1.356375894343977E+08, -5.002564943269288E+08, 1.329048436105359E+07,
2461687.500000000, A.D. 2027-Oct-09 00:00:00.0000, -1.267527694776421E+08, -5.024587274257621E+08, 1.173187720821786E+07,
2461694.500000000, A.D. 2027-Oct-16 00:00:00.0000, -1.178237343338191E+08, -5.044857939461491E+08, 1.016917959235701E+07,
2461701.500000000, A.D. 2027-Oct-23 00:00:00.0000, -1.088535581053383E+08, -5.063368145010015E+08, 8.602932876278222E+06,
2461708.500000000, A.D. 2027-Oct-30 00:00:00.0000, -9.984533108719970E+07, -5.080109559267957E+08, 7.033680323456913E+06,
2461715.500000000, A.D. 2027-Nov-06 00:00:00.0000, -9.080215890437077E+07, -5.095074299405620E+08, 5.461967131419241E+06,
2461722.500000000, A.D. 2027-Nov-13 00:00:00.0000, -8.172716408895713E+07, -5.108254922866010E+08, 3.888340648268163E+06,
2461729.500000000, A.D. 2027-Nov-20 00:00:00.0000, -7.262348719305916E+07, -5.119644445588726E+08, 2.313350327343106E+06,
2461736.500000000, A.D. 2027-Nov-27 00:00:00.0000, -6.349428581836067E+07, -5.129236357363155E+08, 7.375475138522387E+05,
2461743.500000000, A.D. 2027-Dec-04 00:00:00.0000, -5.434273358567242E+07, -5.137024625187466E+08, -8.385146762520075E+05,
2461750.500000000, A.D. 2027-Dec-11 00:00:00.0000, -4.517201959497284E+07, -5.143003694279481E+08, -2.414281413468927E+06,
2461757.500000000, A.D. 2027-Dec-18 00:00:00.0000, -3.598534810082843E+07, -5.147168490129474E+08, -3.989196201000363E+06,
2461764.500000000, A.D. 2027-Dec-25 00:00:00.0000, -2.678593825073390E+07, -5.149514421610889E+08, -5.562700924246788E+06,
2461771.500000000, A.D. 2028-Jan-01 00:00:00.0000, -1.757702384407030E+07, -5.150037384996610E+08, -7.134235906233549E+06,
$$EOE